[{"OBJECT_NAME":"STARLINK-3839","OBJECT_ID":"2022-049AF","EPOCH":"2026-03-09T23:01:34.141152","MEAN_MOTION":15.08835969,"ECCENTRICITY":0.00013007,"INCLINATION":53.2162,"RA_OF_ASC_NODE":57.9097,"ARG_OF_PERICENTER":88.8633,"MEAN_ANOMALY":271.2508,"EPHEMERIS_TYPE":0,"CLASSIFICATION_TYPE":"U","NORAD_CAT_ID":52480,"ELEMENT_SET_NO":999,"REV_AT_EPOCH":21229,"BSTAR":-0.00043773734,"MEAN_MOTION_DOT":-7.247e-5,"MEAN_MOTION_DDOT":0},{"OBJECT_NAME":"CZ-4C R\/B","OBJECT_ID":"2020-103C","EPOCH":"2026-03-09T22:29:51.645120","MEAN_MOTION":15.00867026,"ECCENTRICITY":0.00868382,"INCLINATION":98.3813,"RA_OF_ASC_NODE":98.2397,"ARG_OF_PERICENTER":305.3689,"MEAN_ANOMALY":53.9441,"EPHEMERIS_TYPE":0,"CLASSIFICATION_TYPE":"U","NORAD_CAT_ID":47304,"ELEMENT_SET_NO":999,"REV_AT_EPOCH":28329,"BSTAR":0.00023135286,"MEAN_MOTION_DOT":3.11e-5,"MEAN_MOTION_DDOT":0}]
